{
  "type": "FeatureCollection",
  "features": [
    {
      "type": "Feature",
      "properties": {
        "norad_id": 25590,
        "name": "COSMOS 2361",
        "group": "musson",
        "lat": -82.0507440113792,
        "lon": -138.53160277446943,
        "alt_km": 974.7266144980731,
        "timestamp": "2025-12-19T20:43:00.355266+00:00",
        "meta_object_name": "COSMOS 2361",
        "meta_object_id": "1998-076A",
        "meta_epoch": "2025-12-19T05:29:17.270304",
        "meta_mean_motion": 13.7321829,
        "meta_eccentricity": 0.003014,
        "meta_inclination": 82.934,
        "meta_ra_of_asc_node": 339.2867,
        "meta_arg_of_pericenter": 246.789,
        "meta_mean_anomaly": 124.3634,
        "meta_ephemeris_type": 0,
        "meta_classification_type": "U",
        "meta_norad_cat_id": 25590,
        "meta_element_set_no": 999,
        "meta_rev_at_epoch": 35200,
        "meta_bstar": 4.9018254e-05,
        "meta_mean_motion_dot": 6e-07,
        "meta_mean_motion_ddot": 0,
        "tle_line1": "1 25590U 98076A   25353.22867211  .00000060  00000+0  49018-4 0  9999",
        "tle_line2": "2 25590  82.9340 339.2867 0030140 246.7890 124.3634 13.73218290352000"
      },
      "geometry": {
        "type": "Point",
        "coordinates": [
          -138.53160277446943,
          -82.0507440113792
        ]
      }
    },
    {
      "type": "Feature",
      "properties": {
        "norad_id": 26818,
        "name": "COSMOS 2378",
        "group": "musson",
        "lat": 2.4112289470678583,
        "lon": -5.257705267418382,
        "alt_km": 1011.4461748819549,
        "timestamp": "2025-12-19T20:43:00.355287+00:00",
        "meta_object_name": "COSMOS 2378",
        "meta_object_id": "2001-023A",
        "meta_epoch": "2025-12-19T03:34:35.842944",
        "meta_mean_motion": 13.74142529,
        "meta_eccentricity": 0.00327964,
        "meta_inclination": 82.927,
        "meta_ra_of_asc_node": 354.9721,
        "meta_arg_of_pericenter": 186.8384,
        "meta_mean_anomaly": 244.73,
        "meta_ephemeris_type": 0,
        "meta_classification_type": "U",
        "meta_norad_cat_id": 26818,
        "meta_element_set_no": 999,
        "meta_rev_at_epoch": 23011,
        "meta_bstar": 3.6741446e-05,
        "meta_mean_motion_dot": 5e-07,
        "meta_mean_motion_ddot": 0,
        "tle_line1": "1 26818U 01023A   25353.14902596  .00000050  00000+0  36741-4 0  9994",
        "tle_line2": "2 26818  82.9270 354.9721 0032796 186.8384 244.7300 13.74142529230116"
      },
      "geometry": {
        "type": "Point",
        "coordinates": [
          -5.257705267418382,
          2.4112289470678583
        ]
      }
    },
    {
      "type": "Feature",
      "properties": {
        "norad_id": 27436,
        "name": "COSMOS 2389",
        "group": "musson",
        "lat": -54.69329222199208,
        "lon": 131.77314215411803,
        "alt_km": 1021.9963720408068,
        "timestamp": "2025-12-19T20:43:00.355301+00:00",
        "meta_object_name": "COSMOS 2389",
        "meta_object_id": "2002-026A",
        "meta_epoch": "2025-12-19T06:08:42.332928",
        "meta_mean_motion": 13.75155305,
        "meta_eccentricity": 0.00474034,
        "meta_inclination": 82.9508,
        "meta_ra_of_asc_node": 302.1607,
        "meta_arg_of_pericenter": 43.0186,
        "meta_mean_anomaly": 68.3041,
        "meta_ephemeris_type": 0,
        "meta_classification_type": "U",
        "meta_norad_cat_id": 27436,
        "meta_element_set_no": 999,
        "meta_rev_at_epoch": 18238,
        "meta_bstar": 3.0886725e-05,
        "meta_mean_motion_dot": 4.5e-07,
        "meta_mean_motion_ddot": 0,
        "tle_line1": "1 27436U 02026A   25353.25604552  .00000045  00000+0  30887-4 0  9997",
        "tle_line2": "2 27436  82.9508 302.1607 0047403  43.0186  68.3041 13.75155305182384"
      },
      "geometry": {
        "type": "Point",
        "coordinates": [
          131.77314215411803,
          -54.69329222199208
        ]
      }
    },
    {
      "type": "Feature",
      "properties": {
        "norad_id": 27818,
        "name": "COSMOS 2398",
        "group": "musson",
        "lat": 61.83693865787098,
        "lon": 74.08175627843191,
        "alt_km": 963.0426399008793,
        "timestamp": "2025-12-19T20:43:00.355314+00:00",
        "meta_object_name": "COSMOS 2398",
        "meta_object_id": "2003-023A",
        "meta_epoch": "2025-12-19T04:56:41.902656",
        "meta_mean_motion": 13.72386311,
        "meta_eccentricity": 0.00327387,
        "meta_inclination": 82.9484,
        "meta_ra_of_asc_node": 267.9334,
        "meta_arg_of_pericenter": 94.5219,
        "meta_mean_anomaly": 17.6858,
        "meta_ephemeris_type": 0,
        "meta_classification_type": "U",
        "meta_norad_cat_id": 27818,
        "meta_element_set_no": 999,
        "meta_rev_at_epoch": 12905,
        "meta_bstar": 4.1461362e-05,
        "meta_mean_motion_dot": 5.3e-07,
        "meta_mean_motion_ddot": 0,
        "tle_line1": "1 27818U 03023A   25353.20604054  .00000053  00000+0  41461-4 0  9990",
        "tle_line2": "2 27818  82.9484 267.9334 0032738  94.5219  17.6858 13.72386311129057"
      },
      "geometry": {
        "type": "Point",
        "coordinates": [
          74.08175627843191,
          61.83693865787098
        ]
      }
    },
    {
      "type": "Feature",
      "properties": {
        "norad_id": 28380,
        "name": "COSMOS 2407",
        "group": "musson",
        "lat": 52.95134840906341,
        "lon": -142.96021445959263,
        "alt_km": 944.0132568040099,
        "timestamp": "2025-12-19T20:43:00.355325+00:00",
        "meta_object_name": "COSMOS 2407",
        "meta_object_id": "2004-028A",
        "meta_epoch": "2025-12-19T03:34:17.610816",
        "meta_mean_motion": 13.76314417,
        "meta_eccentricity": 0.00400539,
        "meta_inclination": 82.9599,
        "meta_ra_of_asc_node": 208.1474,
        "meta_arg_of_pericenter": 37.3868,
        "meta_mean_anomaly": 78.485,
        "meta_ephemeris_type": 0,
        "meta_classification_type": "U",
        "meta_norad_cat_id": 28380,
        "meta_element_set_no": 999,
        "meta_rev_at_epoch": 7511,
        "meta_bstar": 6.5132214e-05,
        "meta_mean_motion_dot": 7.9e-07,
        "meta_mean_motion_ddot": 0,
        "tle_line1": "1 28380U 04028A   25353.14881494  .00000079  00000+0  65132-4 0  9998",
        "tle_line2": "2 28380  82.9599 208.1474 0040053  37.3868  78.4850 13.76314417 75111"
      },
      "geometry": {
        "type": "Point",
        "coordinates": [
          -142.96021445959263,
          52.95134840906341
        ]
      }
    },
    {
      "type": "Feature",
      "properties": {
        "norad_id": 28521,
        "name": "COSMOS 2414",
        "group": "musson",
        "lat": -72.63318681303662,
        "lon": 22.58569175728064,
        "alt_km": 964.2895745662281,
        "timestamp": "2025-12-19T20:43:00.355336+00:00",
        "meta_object_name": "COSMOS 2414",
        "meta_object_id": "2005-002A",
        "meta_epoch": "2025-12-18T22:44:14.200512",
        "meta_mean_motion": 13.87903773,
        "meta_eccentricity": 0.00412082,
        "meta_inclination": 82.9488,
        "meta_ra_of_asc_node": 179.9657,
        "meta_arg_of_pericenter": 122.3921,
        "meta_mean_anomaly": 238.1241,
        "meta_ephemeris_type": 0,
        "meta_classification_type": "U",
        "meta_norad_cat_id": 28521,
        "meta_element_set_no": 999,
        "meta_rev_at_epoch": 5881,
        "meta_bstar": 5.0386673e-05,
        "meta_mean_motion_dot": 7.6e-07,
        "meta_mean_motion_ddot": 0,
        "tle_line1": "1 28521U 05002A   25352.94738658  .00000076  00000+0  50387-4 0  9991",
        "tle_line2": "2 28521  82.9488 179.9657 0041208 122.3921 238.1241 13.87903773 58819"
      },
      "geometry": {
        "type": "Point",
        "coordinates": [
          22.58569175728064,
          -72.63318681303662
        ]
      }
    },
    {
      "type": "Feature",
      "properties": {
        "norad_id": 32052,
        "name": "COSMOS 2429",
        "group": "musson",
        "lat": 60.556937565457915,
        "lon": -9.335101966700261,
        "alt_km": 954.3004968734622,
        "timestamp": "2025-12-19T20:43:00.355347+00:00",
        "meta_object_name": "COSMOS 2429",
        "meta_object_id": "2007-038A",
        "meta_epoch": "2025-12-19T01:12:46.996416",
        "meta_mean_motion": 13.75150032,
        "meta_eccentricity": 0.00388911,
        "meta_inclination": 82.9804,
        "meta_ra_of_asc_node": 338.6561,
        "meta_arg_of_pericenter": 20.5682,
        "meta_mean_anomaly": 339.7029,
        "meta_ephemeris_type": 0,
        "meta_classification_type": "U",
        "meta_norad_cat_id": 32052,
        "meta_element_set_no": 999,
        "meta_rev_at_epoch": 91689,
        "meta_bstar": 4.1871298e-05,
        "meta_mean_motion_dot": 5.6e-07,
        "meta_mean_motion_ddot": 0,
        "tle_line1": "1 32052U 07038A   25353.05054394  .00000056  00000+0  41871-4 0  9993",
        "tle_line2": "2 32052  82.9804 338.6561 0038891  20.5682 339.7029 13.75150032916892"
      },
      "geometry": {
        "type": "Point",
        "coordinates": [
          -9.335101966700261,
          60.556937565457915
        ]
      }
    },
    {
      "type": "Feature",
      "properties": {
        "norad_id": 35635,
        "name": "COSMOS 2454",
        "group": "musson",
        "lat": -4.487230235441809,
        "lon": 162.68884624610286,
        "alt_km": 924.7018295771886,
        "timestamp": "2025-12-19T20:43:00.355358+00:00",
        "meta_object_name": "COSMOS 2454",
        "meta_object_id": "2009-039A",
        "meta_epoch": "2025-12-19T06:01:01.932384",
        "meta_mean_motion": 13.89929385,
        "meta_eccentricity": 0.00202671,
        "meta_inclination": 82.9554,
        "meta_ra_of_asc_node": 163.7092,
        "meta_arg_of_pericenter": 56.2877,
        "meta_mean_anomaly": 116.5565,
        "meta_ephemeris_type": 0,
        "meta_classification_type": "U",
        "meta_norad_cat_id": 35635,
        "meta_element_set_no": 999,
        "meta_rev_at_epoch": 83240,
        "meta_bstar": 3.4330798e-05,
        "meta_mean_motion_dot": 5.8e-07,
        "meta_mean_motion_ddot": 0,
        "tle_line1": "1 35635U 09039A   25353.25071681  .00000058  00000+0  34331-4 0  9991",
        "tle_line2": "2 35635  82.9554 163.7092 0020267  56.2877 116.5565 13.89929385832400"
      },
      "geometry": {
        "type": "Point",
        "coordinates": [
          162.68884624610286,
          -4.487230235441809
        ]
      }
    },
    {
      "type": "Feature",
      "properties": {
        "norad_id": 36519,
        "name": "COSMOS 2463",
        "group": "musson",
        "lat": -70.73367631334564,
        "lon": 0.7769271741091769,
        "alt_km": 976.9379972450497,
        "timestamp": "2025-12-19T20:43:00.355369+00:00",
        "meta_object_name": "COSMOS 2463",
        "meta_object_id": "2010-017A",
        "meta_epoch": "2025-12-19T03:51:58.765248",
        "meta_mean_motion": 13.71649741,
        "meta_eccentricity": 0.00347388,
        "meta_inclination": 82.9606,
        "meta_ra_of_asc_node": 21.9937,
        "meta_arg_of_pericenter": 269.5735,
        "meta_mean_anomaly": 153.3183,
        "meta_ephemeris_type": 0,
        "meta_classification_type": "U",
        "meta_norad_cat_id": 36519,
        "meta_element_set_no": 999,
        "meta_rev_at_epoch": 78325,
        "meta_bstar": 5.8772342e-05,
        "meta_mean_motion_dot": 6.8e-07,
        "meta_mean_motion_ddot": 0,
        "tle_line1": "1 36519U 10017A   25353.16109682  .00000068  00000+0  58772-4 0  9990",
        "tle_line2": "2 36519  82.9606  21.9937 0034738 269.5735 153.3183 13.71649741783252"
      },
      "geometry": {
        "type": "Point",
        "coordinates": [
          0.7769271741091769,
          -70.73367631334564
        ]
      }
    }
  ]
}